QIANFAN-33              
1 61566U 24185Q   25280.26837030  .00000553  00000+0  39111-3 0  9990
2 61566  88.9739  86.2182 0007428 157.9161 202.2337 13.96465020 59883
QIANFAN-34              
1 61567U 24185R   25280.29215508  .00000551  00000+0  35152-3 0  9993
2 61567  88.9717  85.8673 0006305 163.2054 196.9336 14.02216968 60045
QIANFAN-35              
1 61568U 24185S   25280.26289097  .00001304  00000+0  52190-3 0  9993
2 61568  88.9745  84.6812 0008125 132.3064 227.8821 14.27796096 60695
QIANFAN-36              
1 61569U 24185T   25280.30939843  .00000204  00000+0  27661-3 0  9993
2 61569  88.9725  87.9646 0004677 222.4101 137.6692 13.55561277 58924
QIANFAN-37              
1 62238U 24232B   25280.33442505  .00000126  00000+0  17710-3 0  9994
2 62238  89.0004  48.0200 0001137  96.6919 263.4362 13.50968634 90202
QIANFAN-38              
1 62239U 24232C   25280.35916516  .00000131  00000+0  18474-3 0  9999
2 62239  89.0011  47.9288 0015153  33.8262 326.3853 13.50977245 90260
QIANFAN-39              
1 62240U 24232D   25280.29165322  .00000702  00000+0  29217-3 0  9996
2 62240  89.0009  44.8939 0014112 299.3124  60.6658 14.25278288 91927
QIANFAN-40              
1 62241U 24232E   25280.31798546  .00000116  00000+0  16090-3 0  9994
2 62241  89.0039  47.4989 0014416  41.9599 318.2654 13.50976729 90625
